KINEIS-5E               
1 62083U 24219C   26094.09964522  .00001008  00000+0  16701-3 0  9991
2 62083  97.9225 255.1412 0006420 111.8507 248.3384 14.72318270 72860
KINEIS-5A               
1 62084U 24219D   26095.22133106  .00001556  00000+0  25418-3 0  9997
2 62084  97.9475 256.4023 0005908 130.5281 229.6442 14.72255926 73032
KINEIS-5B               
1 62085U 24219E   26095.28237858  .00002170  00000+0  30672-3 0  9994
2 62085  97.9989 259.5760 0003057 127.3911 232.7579 14.78172286 73233
KINEIS-2C               
1 62929U 25028B   26095.16390580  .00002077  00000+0  33640-3 0  9993
2 62929  98.0278 150.0005 0001174 161.5243 198.6007 14.72312389 61862
KINEIS-2D               
1 62930U 25028C   26095.15469995  .00002857  00000+0  42744-3 0  9992
2 62930  97.9353 148.9952 0004725  87.0847 273.0903 14.75457871 61941
KINEIS-2E               
1 62931U 25028D   26095.12259668  .00002342  00000+0  34087-3 0  9994
2 62931  97.9023 148.2977 0001912  88.0241 272.1188 14.76813006 61997
KINEIS-2A               
1 62932U 25028E   26095.12773667  .00002021  00000+0  32858-3 0  9993
2 62932  98.0975 150.5004 0001159 113.9739 246.1589 14.72182195 61851
KINEIS-2B               
1 62934U 25028G   26095.13012691  .00002115  00000+0  33535-3 0  9996
2 62934  97.9733 149.3031 0004191  47.0969 313.0590 14.73203698 61905
KINEIS-4E               
1 63300U 25056A   26095.05596343  .00000478  00000+0  83377-4 0  9997
2 63300  97.9576 220.8768 0001253 121.5335 238.5995 14.72272693 56365
KINEIS-4C               
1 63301U 25056B   26095.06796516  .00000617  00000+0  10537-3 0  9995
2 63301  97.9631 221.0728 0002758 145.1375 215.0013 14.72304248 56378
KINEIS-4D               
1 63302U 25056C   26095.20862188  .00000292  00000+0  53909-4 0  9991
2 63302  97.9668 221.1869 0002382 159.0217 201.1089 14.72321836 56391
KINEIS-4A               
1 63303U 25056D   26095.30928574 -.00000057  00000+0 -13253-5 0  9995
2 63303  97.9633 221.2179 0002771 151.7026 208.4332 14.72343881 56405
KINEIS-4B               
1 63304U 25056E   26095.29265083  .00000450  00000+0  78951-4 0  9993
2 63304  97.9639 221.2452 0005314 130.9937 229.1731 14.72330708 56397
