[{"OBJECT_NAME":"KINEIS-5E","OBJECT_ID":"2024-219C","EPOCH":"2026-04-04T02:23:29.347008","MEAN_MOTION":14.7231827,"ECCENTRICITY":0.00064202,"INCLINATION":97.9225,"RA_OF_ASC_NODE":255.1412,"ARG_OF_PERICENTER":111.8507,"MEAN_ANOMALY":248.3384,"EPHEMERIS_TYPE":0,"CLASSIFICATION_TYPE":"U","NORAD_CAT_ID":62083,"ELEMENT_SET_NO":999,"REV_AT_EPOCH":7286,"BSTAR":0.00016700799,"MEAN_MOTION_DOT":1.008e-5,"MEAN_MOTION_DDOT":0},{"OBJECT_NAME":"KINEIS-5A","OBJECT_ID":"2024-219D","EPOCH":"2026-04-05T05:18:43.003584","MEAN_MOTION":14.72255926,"ECCENTRICITY":0.00059085,"INCLINATION":97.9475,"RA_OF_ASC_NODE":256.4023,"ARG_OF_PERICENTER":130.5281,"MEAN_ANOMALY":229.6442,"EPHEMERIS_TYPE":0,"CLASSIFICATION_TYPE":"U","NORAD_CAT_ID":62084,"ELEMENT_SET_NO":999,"REV_AT_EPOCH":7303,"BSTAR":0.00025418204,"MEAN_MOTION_DOT":1.556e-5,"MEAN_MOTION_DDOT":0},{"OBJECT_NAME":"KINEIS-5B","OBJECT_ID":"2024-219E","EPOCH":"2026-04-05T06:46:37.509312","MEAN_MOTION":14.78172286,"ECCENTRICITY":0.00030571,"INCLINATION":97.9989,"RA_OF_ASC_NODE":259.576,"ARG_OF_PERICENTER":127.3911,"MEAN_ANOMALY":232.7579,"EPHEMERIS_TYPE":0,"CLASSIFICATION_TYPE":"U","NORAD_CAT_ID":62085,"ELEMENT_SET_NO":999,"REV_AT_EPOCH":7323,"BSTAR":0.00030671869,"MEAN_MOTION_DOT":2.17e-5,"MEAN_MOTION_DDOT":0},{"OBJECT_NAME":"KINEIS-2C","OBJECT_ID":"2025-028B","EPOCH":"2026-04-05T03:56:01.461120","MEAN_MOTION":14.72312389,"ECCENTRICITY":0.00011746,"INCLINATION":98.0278,"RA_OF_ASC_NODE":150.0005,"ARG_OF_PERICENTER":161.5243,"MEAN_ANOMALY":198.6007,"EPHEMERIS_TYPE":0,"CLASSIFICATION_TYPE":"U","NORAD_CAT_ID":62929,"ELEMENT_SET_NO":999,"REV_AT_EPOCH":6186,"BSTAR":0.00033639987,"MEAN_MOTION_DOT":2.077e-5,"MEAN_MOTION_DDOT":0},{"OBJECT_NAME":"KINEIS-2D","OBJECT_ID":"2025-028C","EPOCH":"2026-04-05T03:42:46.075680","MEAN_MOTION":14.75457871,"ECCENTRICITY":0.00047258,"INCLINATION":97.9353,"RA_OF_ASC_NODE":148.9952,"ARG_OF_PERICENTER":87.0847,"MEAN_ANOMALY":273.0903,"EPHEMERIS_TYPE":0,"CLASSIFICATION_TYPE":"U","NORAD_CAT_ID":62930,"ELEMENT_SET_NO":999,"REV_AT_EPOCH":6194,"BSTAR":0.00042744305,"MEAN_MOTION_DOT":2.857e-5,"MEAN_MOTION_DDOT":0},{"OBJECT_NAME":"KINEIS-2E","OBJECT_ID":"2025-028D","EPOCH":"2026-04-05T02:56:32.353152","MEAN_MOTION":14.76813006,"ECCENTRICITY":0.00019126,"INCLINATION":97.9023,"RA_OF_ASC_NODE":148.2977,"ARG_OF_PERICENTER":88.0241,"MEAN_ANOMALY":272.1188,"EPHEMERIS_TYPE":0,"CLASSIFICATION_TYPE":"U","NORAD_CAT_ID":62931,"ELEMENT_SET_NO":999,"REV_AT_EPOCH":6199,"BSTAR":0.00034086954,"MEAN_MOTION_DOT":2.342e-5,"MEAN_MOTION_DDOT":0},{"OBJECT_NAME":"KINEIS-2A","OBJECT_ID":"2025-028E","EPOCH":"2026-04-05T03:03:56.448288","MEAN_MOTION":14.72182195,"ECCENTRICITY":0.0001159,"INCLINATION":98.0975,"RA_OF_ASC_NODE":150.5004,"ARG_OF_PERICENTER":113.9739,"MEAN_ANOMALY":246.1589,"EPHEMERIS_TYPE":0,"CLASSIFICATION_TYPE":"U","NORAD_CAT_ID":62932,"ELEMENT_SET_NO":999,"REV_AT_EPOCH":6185,"BSTAR":0.00032858159,"MEAN_MOTION_DOT":2.021e-5,"MEAN_MOTION_DDOT":0},{"OBJECT_NAME":"KINEIS-2B","OBJECT_ID":"2025-028G","EPOCH":"2026-04-05T03:07:22.965024","MEAN_MOTION":14.73203698,"ECCENTRICITY":0.00041913,"INCLINATION":97.9733,"RA_OF_ASC_NODE":149.3031,"ARG_OF_PERICENTER":47.0969,"MEAN_ANOMALY":313.059,"EPHEMERIS_TYPE":0,"CLASSIFICATION_TYPE":"U","NORAD_CAT_ID":62934,"ELEMENT_SET_NO":999,"REV_AT_EPOCH":6190,"BSTAR":0.00033535364,"MEAN_MOTION_DOT":2.115e-5,"MEAN_MOTION_DDOT":0},{"OBJECT_NAME":"KINEIS-4E","OBJECT_ID":"2025-056A","EPOCH":"2026-04-05T01:20:35.240352","MEAN_MOTION":14.72272693,"ECCENTRICITY":0.0001253,"INCLINATION":97.9576,"RA_OF_ASC_NODE":220.8768,"ARG_OF_PERICENTER":121.5335,"MEAN_ANOMALY":238.5995,"EPHEMERIS_TYPE":0,"CLASSIFICATION_TYPE":"U","NORAD_CAT_ID":63300,"ELEMENT_SET_NO":999,"REV_AT_EPOCH":5636,"BSTAR":8.3377278e-5,"MEAN_MOTION_DOT":4.78e-6,"MEAN_MOTION_DDOT":0},{"OBJECT_NAME":"KINEIS-4C","OBJECT_ID":"2025-056B","EPOCH":"2026-04-05T01:37:52.189824","MEAN_MOTION":14.72304248,"ECCENTRICITY":0.00027584,"INCLINATION":97.9631,"RA_OF_ASC_NODE":221.0728,"ARG_OF_PERICENTER":145.1375,"MEAN_ANOMALY":215.0013,"EPHEMERIS_TYPE":0,"CLASSIFICATION_TYPE":"U","NORAD_CAT_ID":63301,"ELEMENT_SET_NO":999,"REV_AT_EPOCH":5637,"BSTAR":0.00010536723,"MEAN_MOTION_DOT":6.17e-6,"MEAN_MOTION_DDOT":0},{"OBJECT_NAME":"KINEIS-4D","OBJECT_ID":"2025-056C","EPOCH":"2026-04-05T05:00:24.930432","MEAN_MOTION":14.72321836,"ECCENTRICITY":0.00023824,"INCLINATION":97.9668,"RA_OF_ASC_NODE":221.1869,"ARG_OF_PERICENTER":159.0217,"MEAN_ANOMALY":201.1089,"EPHEMERIS_TYPE":0,"CLASSIFICATION_TYPE":"U","NORAD_CAT_ID":63302,"ELEMENT_SET_NO":999,"REV_AT_EPOCH":5639,"BSTAR":5.3909224e-5,"MEAN_MOTION_DOT":2.92e-6,"MEAN_MOTION_DDOT":0},{"OBJECT_NAME":"KINEIS-4A","OBJECT_ID":"2025-056D","EPOCH":"2026-04-05T07:25:22.287936","MEAN_MOTION":14.72343881,"ECCENTRICITY":0.00027715,"INCLINATION":97.9633,"RA_OF_ASC_NODE":221.2179,"ARG_OF_PERICENTER":151.7026,"MEAN_ANOMALY":208.4332,"EPHEMERIS_TYPE":0,"CLASSIFICATION_TYPE":"U","NORAD_CAT_ID":63303,"ELEMENT_SET_NO":999,"REV_AT_EPOCH":5640,"BSTAR":-1.325268e-6,"MEAN_MOTION_DOT":-5.7e-7,"MEAN_MOTION_DDOT":0},{"OBJECT_NAME":"KINEIS-4B","OBJECT_ID":"2025-056E","EPOCH":"2026-04-05T07:01:25.031712","MEAN_MOTION":14.72330708,"ECCENTRICITY":0.0005314,"INCLINATION":97.9639,"RA_OF_ASC_NODE":221.2452,"ARG_OF_PERICENTER":130.9937,"MEAN_ANOMALY":229.1731,"EPHEMERIS_TYPE":0,"CLASSIFICATION_TYPE":"U","NORAD_CAT_ID":63304,"ELEMENT_SET_NO":999,"REV_AT_EPOCH":5639,"BSTAR":7.8951433e-5,"MEAN_MOTION_DOT":4.5e-6,"MEAN_MOTION_DDOT":0}]
